QIANFAN-41              
1 62242U 24232F   25283.51098172  .00000141  00000+0  19933-3 0  9995
2 62242  89.0014  47.5638 0014156  21.5287 338.6456 13.50976161 90716
QIANFAN-42              
1 62243U 24232G   25283.47931464  .00000634  00000+0  26776-3 0  9991
2 62243  89.0011  44.5679 0012915 293.7782  66.2055 14.24384747 92367
QIANFAN-43              
1 62244U 24232H   25283.50690370  .00000129  00000+0  18056-3 0  9995
2 62244  89.0018  47.6267 0015829  25.9704 334.2238 13.50977206 59324
QIANFAN-44              
1 62245U 24232J   25283.49449826  .00000133  00000+0  18708-3 0  9991
2 62245  89.0017  47.4397 0013968  23.9492 336.2306 13.50978491 90791
QIANFAN-45              
1 62246U 24232K   25283.46163306  .00000138  00000+0  19526-3 0  9999
2 62246  89.0019  47.5873 0014602  23.3925 336.7887 13.50975144 90718
QIANFAN-46              
1 62247U 24232L   25283.48629610  .00000145  00000+0  20571-3 0  9997
2 62247  89.0016  47.6563 0014853  28.6255 331.5709 13.50975777 90678
QIANFAN-47              
1 62248U 24232M   25283.49043330  .00000139  00000+0  19657-3 0  9994
2 62248  89.0012  47.5914 0015241  27.5849 332.6108 13.50977494 90700
QIANFAN-48              
1 62249U 24232N   25283.52751576  .00000154  00000+0  21905-3 0  9993
2 62249  89.0016  47.5871 0017547  29.1728 331.0399 13.50973391 90710
